BEIDOU-2 IGSO-5         
1 37948U 11073A   26183.72937883 -.00000128  00000+0  00000+0 0  9990
2 37948  47.6496 271.3544 0114527 222.0502 141.5350  1.00270596 53296
LUCH-5A                 
1 37951U 11074B   26203.44787147 -.00000052  00000+0  00000+0 0  9999
2 37951   8.8408  73.2870 0002888  61.8063 133.3744  1.00274767 53403
BEIDOU-2 G5             
1 38091U 12008A   26203.62591083  .00000058  00000+0  00000+0 0  9990
2 38091   3.6601  69.4735 0007081 271.3589 243.5281  1.00273248 52722
BEIDOU-2 M3             
1 38250U 12018A   26202.01707733 -.00000103  00000+0  00000+0 0  9993
2 38250  55.7262 303.7342 0021109 272.1021  87.6870  1.86229710 96576
BEIDOU-2 M4             
1 38251U 12018B   26201.94943255 -.00000102  00000+0  00000+0 0  9995
2 38251  55.6263 302.9476 0012250 272.0854  87.8062  1.86229353 96574
SES-5                   
1 38652U 12036A   26203.33011471  .00000037  00000+0  00000+0 0  9997
2 38652   0.0446 320.3526 0002058 156.7771 306.7623  1.00271613 44804
BEIDOU-2 M6             
1 38775U 12050B   26201.12202765 -.00000077  00000+0  00000+0 0  9997
2 38775  56.5733  61.8055 0012726   2.2324 357.8361  1.86230986 93926
GSAT-10                 
1 38779U 12051B   26203.41695645 -.00000162  00000+0  00000+0 0  9994
2 38779   0.0731 263.1821 0007647 193.0679  77.0302  1.00272627 50459
NAVSTAR 67 (USA 239)    
1 38833U 12053A   26202.21868512  .00000014  00000+0  00000+0 0  9994
2 38833  53.5902 142.2050 0182407  66.3332 295.5491  2.00568090100129
GSAT0103 (GALILEO-FM3)  
1 38857U 12055A   26200.15144010 -.00000035  00000+0  00000+0 0  9997
2 38857  55.8248 100.6680 0003622 312.6356  47.3724  1.70473478 85556
BEIDOU-2 G6             
1 38953U 12059A   26203.63093752 -.00000176  00000+0  00000+0 0  9996
2 38953   4.5091  73.1386 0008956 329.4301 208.9747  1.00273179 50267
LUCH-5B                 
1 38977U 12061A   26203.32595469 -.00000142  00000+0  00000+0 0  9996
2 38977  10.5579  49.5290 0003815 142.6443 208.9363  1.00270748 49950
COSMOS 2485 [GLONASS-M] 
1 39155U 13019A   26201.22743888 -.00000049  00000+0  00000+0 0  9992
2 39155  65.4381  72.4960 0022557 230.6909 129.1761  2.13103050102982
NAVSTAR 68 (USA 242)    
1 39166U 13023A   26203.08371062 -.00000025  00000+0  00000+0 0  9990
2 39166  54.4778 267.5502 0141404  51.1079 310.2126  2.00563446 96589
IRNSS-1A                
1 39199U 13034A   26202.69840733  .00000051  00000+0  00000+0 0  9998
2 39199  35.7944  63.3755 0018675 179.5075   3.0224  1.00271641 47717
NAVSTAR 69 (USA 248)    
1 39533U 14008A   26203.08558290  .00000016  00000+0  00000+0 0  9991
2 39533  53.6583 147.8962 0084029 231.5745 127.6466  2.00562088 90385
ASTRA 5B                
1 39617U 14011B   26203.33384140  .00000140  00000+0  00000+0 0  9995
2 39617   0.0627 311.9113 0002202 176.3679 315.4243  1.00272228 45024
COSMOS 2492 [GLONASS-M] 
1 39620U 14012A   26203.53259258 -.00000090  00000+0  00000+0 0  9998
2 39620  65.2744 312.7343 0010307 316.3437  43.5947  2.13103176 95999
IRNSS-1B                
1 39635U 14017A   26202.69832066  .00000138  00000+0  00000+0 0  9991
2 39635  28.8684 239.8086 0021402 191.2309 174.9116  1.00267561 45145
LUCH-5V                 
1 39727U 14023A   26203.63301753 -.00000269  00000+0  00000+0 0  9995
2 39727   5.2185  69.3754 0002321  78.5308 115.1011  1.00271699 44715
NAVSTAR 70 (USA 251)    
1 39741U 14026A   26203.36185617 -.00000111  00000+0  00000+0 0  9999
2 39741  56.4791 330.1484 0038189 325.5817  34.1763  2.00558522 89247
COSMOS 2500 [GLONASS-M] 
1 40001U 14032A   26202.76339409 -.00000089  00000+0  00000+0 0  9994
2 40001  65.2101 312.5047 0008506 191.6060 168.3951  2.13105857 94194
NAVSTAR 71 (USA 256)    
1 40105U 14045A   26202.95485960 -.00000067  00000+0  00000+0 0  9994
2 40105  55.3757  87.0795 0034720 118.5048 241.8949  2.00560793 86770
GSAT0201 (GALILEO 5)    
1 40128U 14050A   26202.91197597 -.00000055  00000+0  00000+0 0  9994
2 40128  48.8375 272.0101 1679296 180.7600 179.0021  1.85519659 78966
GSAT0202 (GALILEO 6)    
1 40129U 14050B   26202.62841053 -.00000055  00000+0  00000+0 0  9996
2 40129  48.8552 271.1079 1680665 181.4563 178.0378  1.85520496 81123
IRNSS-1C                
1 40269U 14061A   26201.70602686 -.00000167  00000+0  00000+0 0  9992
2 40269   6.5999  88.2929 0021939   6.0783 181.3257  1.00271443 43025
NAVSTAR 72 (USA 258)    
1 40294U 14068A   26203.32201732 -.00000080  00000+0  00000+0 0  9998
2 40294  57.0119  29.6026 0067450  72.5356 288.2395  2.00553794 85914
COSMOS 2501 [GLONASS-K] 
1 40315U 14075A   26202.55658060  .00000090  00000+0  00000+0 0  9994
2 40315  63.6189 189.1825 0022595 212.4587 147.4043  2.13101380 90588
NAVSTAR 73 (USA 260)    
1 40534U 15013A   26201.96718444  .00000074  00000+0  00000+0 0  9999
2 40534  53.1254 202.7533 0110322  40.4930 320.3352  2.00574219 82502
GSAT0203 (GALILEO 7)    
1 40544U 15017A   26202.23459517 -.00000108  00000+0  00000+0 0  9997
2 40544  56.7744 340.6686 0002841 253.2571 106.7061  1.70476352 69781
GSAT0204 (GALILEO 8)    
1 40545U 15017B   26201.31731189 -.00000108  00000+0  00000+0 0  9994
2 40545  56.7823 340.7123 0002939 234.3577 125.6085  1.70475832 32813
